start=new Date('2021-11-22T00:00:00.000Z').valueOf();
sats=[{"RCS_SIZE":"LARGE","REF_FRAME":"TEME","TLE_LINE1":"1 46064U 20055AP  21325.47066435 -.00000356  00000-0 -49764-5 0  9991","RA_OF_ASC_NODE":"321.1067","REV_AT_EPOCH":"7251","OBJECT_NAME":"STARLINK-1583","MEAN_MOTION_DDOT":"0.0000000000000","LAUNCH_DATE":"2020-08-07","COUNTRY_CODE":"US","BSTAR":"-0.00000497640000","PERIOD":"95.593","CENTER_NAME":"EARTH","APOAPSIS":"548.344","MEAN_MOTION_DOT":"-0.00000356","OBJECT_TYPE":"PAYLOAD","INCLINATION":"53.0545","EPOCH":"2021-11-21T11:17:45.399840","TLE_LINE2":"2 46064  53.0545 321.1067 0001596  62.5222 297.5929 15.06391828 72515","MEAN_MOTION":"15.06391828","MEAN_ANOMALY":"297.5929","TIME_SYSTEM":"UTC","FILE":"3220686","ELEMENT_SET_NO":"999","NORAD_CAT_ID":"46064","GP_ID":"190203287","SEMIMAJOR_AXIS":"6925.374","DECAY_DATE":null,"ECCENTRICITY":"0.00015960","MEAN_ELEMENT_THEORY":"SGP4","EPHEMERIS_TYPE":"0","PERIAPSIS":"546.133","CLASSIFICATION_TYPE":"U","SITE":"AFETR","ARG_OF_PERICENTER":"62.5222","OBJECT_ID":"2020-055AP"},{"NORAD_CAT_ID":"46065","GP_ID":"190208470","FILE":"3220792","ELEMENT_SET_NO":"999","SEMIMAJOR_AXIS":"6925.377","DECAY_DATE":null,"ECCENTRICITY":"0.00016830","MEAN_ELEMENT_THEORY":"SGP4","CLASSIFICATION_TYPE":"U","EPHEMERIS_TYPE":"0","PERIAPSIS":"546.077","ARG_OF_PERICENTER":"64.9139","OBJECT_ID":"2020-055AQ","SITE":"AFETR","RA_OF_ASC_NODE":"300.2795","REV_AT_EPOCH":"7231","MEAN_MOTION_DDOT":"0.0000000000000","OBJECT_NAME":"STARLINK-1515","RCS_SIZE":"LARGE","REF_FRAME":"TEME","TLE_LINE1":"1 46065U 20055AQ  21325.66323640  .00001335  00000-0  10854-3 0  9999","COUNTRY_CODE":"US","BSTAR":"0.00010854000000","LAUNCH_DATE":"2020-08-07","APOAPSIS":"548.408","CENTER_NAME":"EARTH","MEAN_MOTION_DOT":"0.00001335","OBJECT_TYPE":"PAYLOAD","INCLINATION":"53.0511","PERIOD":"95.593","MEAN_MOTION":"15.06390664","TLE_LINE2":"2 46065  53.0511 300.2795 0001683  64.9139 295.2024 15.06390664 72311","MEAN_ANOMALY":"295.2024","TIME_SYSTEM":"UTC","EPOCH":"2021-11-21T15:55:03.624960"},{"COUNTRY_CODE":"US","BSTAR":"0.00014880000000","LAUNCH_DATE":"2020-08-07","RA_OF_ASC_NODE":"302.3196","REV_AT_EPOCH":"7274","MEAN_MOTION_DDOT":"0.0000000000000","OBJECT_NAME":"STARLINK-1525","RCS_SIZE":"LARGE","REF_FRAME":"TEME","TLE_LINE1":"1 46066U 20055AR  21325.20343701  .00001935  00000-0  14880-3 0  9999","TLE_LINE2":"2 46066  53.0552 302.3196 0001752  65.4533 294.6638 15.06396663 72742","MEAN_MOTION":"15.06396663","MEAN_ANOMALY":"294.6638","TIME_SYSTEM":"UTC","EPOCH":"2021-11-21T04:52:56.957664","APOAPSIS":"548.437","CENTER_NAME":"EARTH","MEAN_MOTION_DOT":"0.00001935","OBJECT_TYPE":"PAYLOAD","INCLINATION":"53.0552","PERIOD":"95.592","SEMIMAJOR_AXIS":"6925.359","DECAY_DATE":null,"ECCENTRICITY":"0.00017520","MEAN_ELEMENT_THEORY":"SGP4","NORAD_CAT_ID":"46066","GP_ID":"190202290","FILE":"3220686","ELEMENT_SET_NO":"999","ARG_OF_PERICENTER":"65.4533","OBJECT_ID":"2020-055AR","SITE":"AFETR","CLASSIFICATION_TYPE":"U","EPHEMERIS_TYPE":"0","PERIAPSIS":"546.010"},{"INCLINATION":"53.0548","OBJECT_TYPE":"PAYLOAD","APOAPSIS":"548.383","CENTER_NAME":"EARTH","MEAN_MOTION_DOT":"-0.00000361","PERIOD":"95.593","MEAN_ANOMALY":"294.3787","TIME_SYSTEM":"UTC","TLE_LINE2":"2 46067  53.0548 300.2208 0001663  65.7375 294.3787 15.06394261 72280","MEAN_MOTION":"15.06394261","EPOCH":"2021-11-21T16:07:01.736832","REV_AT_EPOCH":"7228","MEAN_MOTION_DDOT":"0.0000000000000","OBJECT_NAME":"STARLINK-1529","RA_OF_ASC_NODE":"300.2208","TLE_LINE1":"1 46067U 20055AS  21325.67154788 -.00000361  00000-0 -53363-5 0  9991","RCS_SIZE":"LARGE","REF_FRAME":"TEME","COUNTRY_CODE":"US","BSTAR":"-0.00000533630000","LAUNCH_DATE":"2020-08-07","CLASSIFICATION_TYPE":"U","EPHEMERIS_TYPE":"0","PERIAPSIS":"546.079","OBJECT_ID":"2020-055AS","ARG_OF_PERICENTER":"65.7375","SITE":"AFETR","GP_ID":"190208166","NORAD_CAT_ID":"46067","ELEMENT_SET_NO":"999","FILE":"3220793","ECCENTRICITY":"0.00016630","MEAN_ELEMENT_THEORY":"SGP4","SEMIMAJOR_AXIS":"6925.366","DECAY_DATE":null},{"PERIOD":"95.592","INCLINATION":"53.0529","OBJECT_TYPE":"PAYLOAD","MEAN_MOTION_DOT":"0.00000507","CENTER_NAME":"EARTH","APOAPSIS":"548.728","EPOCH":"2021-11-21T10:00:47.254176","TIME_SYSTEM":"UTC","MEAN_ANOMALY":"302.6718","TLE_LINE2":"2 46068  53.0529 301.3514 0002173  57.4481 302.6718 15.06396979 72246","MEAN_MOTION":"15.06396979","TLE_LINE1":"1 46068U 20055AT  21325.41721359  .00000507  00000-0  52986-4 0  9997","REF_FRAME":"TEME","RCS_SIZE":"LARGE","MEAN_MOTION_DDOT":"0.0000000000000","OBJECT_NAME":"STARLINK-1532","REV_AT_EPOCH":"7224","RA_OF_ASC_NODE":"301.3514","LAUNCH_DATE":"2020-08-07","BSTAR":"0.00005298600000","COUNTRY_CODE":"US","PERIAPSIS":"545.718","EPHEMERIS_TYPE":"0","CLASSIFICATION_TYPE":"U","SITE":"AFETR","OBJECT_ID":"2020-055AT","ARG_OF_PERICENTER":"57.4481","ELEMENT_SET_NO":"999","FILE":"3220794","GP_ID":"190208513","NORAD_CAT_ID":"46068","MEAN_ELEMENT_THEORY":"SGP4","ECCENTRICITY":"0.00021730","DECAY_DATE":null,"SEMIMAJOR_AXIS":"6925.358"},{"NORAD_CAT_ID":"46069","GP_ID":"190201540","FILE":"3220686","ELEMENT_SET_NO":"999","SEMIMAJOR_AXIS":"6925.315","DECAY_DATE":null,"ECCENTRICITY":"0.00018660","MEAN_ELEMENT_THEORY":"SGP4","CLASSIFICATION_TYPE":"U","EPHEMERIS_TYPE":"0","PERIAPSIS":"545.887","ARG_OF_PERICENTER":"63.7782","OBJECT_ID":"2020-055AU","SITE":"AFETR","RA_OF_ASC_NODE":"301.2900","REV_AT_EPOCH":"7279","OBJECT_NAME":"STARLINK-1533","MEAN_MOTION_DDOT":"0.0000000000000","RCS_SIZE":"LARGE","REF_FRAME":"TEME","TLE_LINE1":"1 46069U 20055AU  21325.43198068  .00004079  00000-0  29250-3 0  9990","COUNTRY_CODE":"US","BSTAR":"0.00029250000000","LAUNCH_DATE":"2020-08-07","APOAPSIS":"548.472","CENTER_NAME":"EARTH","MEAN_MOTION_DOT":"0.00004079","INCLINATION":"53.0533","OBJECT_TYPE":"PAYLOAD","PERIOD":"95.591","MEAN_MOTION":"15.06411038","TLE_LINE2":"2 46069  53.0533 301.2900 0001866  63.7782 296.3399 15.06411038 72790","MEAN_ANOMALY":"296.3399","TIME_SYSTEM":"UTC","EPOCH":"2021-11-21T10:22:03.130752"},{"MEAN_MOTION":"15.06395386","TLE_LINE2":"2 46070  53.0540 300.3291 0001583  63.0315 297.0835 15.06395386 72288","TIME_SYSTEM":"UTC","MEAN_ANOMALY":"297.0835","EPOCH":"2021-11-21T15:29:52.347264","MEAN_MOTION_DOT":"0.00001498","CENTER_NAME":"EARTH","APOAPSIS":"548.324","INCLINATION":"53.0540","OBJECT_TYPE":"PAYLOAD","PERIOD":"95.592","BSTAR":"0.00011947000000","COUNTRY_CODE":"US","LAUNCH_DATE":"2020-08-07","RA_OF_ASC_NODE":"300.3291","MEAN_MOTION_DDOT":"0.0000000000000","OBJECT_NAME":"STARLINK-1536","REV_AT_EPOCH":"7228","REF_FRAME":"TEME","RCS_SIZE":"LARGE","TLE_LINE1":"1 46070U 20055AV  21325.64574476  .00001498  00000-0  11947-3 0  9992","ARG_OF_PERICENTER":"63.0315","OBJECT_ID":"2020-055AV","SITE":"AFETR","CLASSIFICATION_TYPE":"U","PERIAPSIS":"546.131","EPHEMERIS_TYPE":"0","DECAY_DATE":null,"SEMIMAJOR_AXIS":"6925.363","MEAN_ELEMENT_THEORY":"SGP4","ECCENTRICITY":"0.00015830","NORAD_CAT_ID":"46070","GP_ID":"190208534","FILE":"3220796","ELEMENT_SET_NO":"999"},{"LAUNCH_DATE":"2020-08-07","BSTAR":"0.00012398000000","COUNTRY_CODE":"US","TLE_LINE1":"1 46071U 20055AW  21325.66417809  .00001565  00000-0  12398-3 0  9997","REF_FRAME":"TEME","RCS_SIZE":"LARGE","MEAN_MOTION_DDOT":"0.0000000000000","OBJECT_NAME":"STARLINK-1538","REV_AT_EPOCH":"7228","RA_OF_ASC_NODE":"300.2577","EPOCH":"2021-11-21T15:56:24.986976","TIME_SYSTEM":"UTC","MEAN_ANOMALY":"290.8228","MEAN_MOTION":"15.06394712","TLE_LINE2":"2 46071  53.0536 300.2577 0001738  69.2947 290.8228 15.06394712 72280","PERIOD":"95.592","INCLINATION":"53.0536","OBJECT_TYPE":"PAYLOAD","MEAN_MOTION_DOT":"0.00001565","APOAPSIS":"548.433","CENTER_NAME":"EARTH","MEAN_ELEMENT_THEORY":"SGP4","ECCENTRICITY":"0.00017380","DECAY_DATE":null,"SEMIMAJOR_AXIS":"6925.365","ELEMENT_SET_NO":"999","FILE":"3220805","GP_ID":"190208227","NORAD_CAT_ID":"46071","SITE":"AFETR","OBJECT_ID":"2020-055AW","ARG_OF_PERICENTER":"69.2947","PERIAPSIS":"546.026","EPHEMERIS_TYPE":"0","CLASSIFICATION_TYPE":"U"},{"BSTAR":"0.00010896000000","COUNTRY_CODE":"US","LAUNCH_DATE":"2020-08-07","OBJECT_NAME":"STARLINK-1539","MEAN_MOTION_DDOT":"0.0000000000000","REV_AT_EPOCH":"7274","RA_OF_ASC_NODE":"302.2096","TLE_LINE1":"1 46072U 20055AX  21325.22460198  .00001342  00000-0  10896-3 0  9993","REF_FRAME":"TEME","RCS_SIZE":"LARGE","TIME_SYSTEM":"UTC","MEAN_ANOMALY":"301.1065","MEAN_MOTION":"15.06397201","TLE_LINE2":"2 46072  53.0548 302.2096 0001732  59.0094 301.1065 15.06397201 72748","EPOCH":"2021-11-21T05:23:25.611072","OBJECT_TYPE":"PAYLOAD","INCLINATION":"53.0548","MEAN_MOTION_DOT":"0.00001342","CENTER_NAME":"EARTH","APOAPSIS":"548.422","PERIOD":"95.592","MEAN_ELEMENT_THEORY":"SGP4","ECCENTRICITY":"0.00017320","DECAY_DATE":null,"SEMIMAJOR_AXIS":"6925.357","GP_ID":"190203288","NORAD_CAT_ID":"46072","ELEMENT_SET_NO":"999","FILE":"3220686","OBJECT_ID":"2020-055AX","ARG_OF_PERICENTER":"59.0094","SITE":"AFETR","CLASSIFICATION_TYPE":"U","PERIAPSIS":"546.023","EPHEMERIS_TYPE":"0"},{"GP_ID":"190202041","NORAD_CAT_ID":"46073","ELEMENT_SET_NO":"999","FILE":"3220686","MEAN_ELEMENT_THEORY":"SGP4","ECCENTRICITY":"0.00017070","DECAY_DATE":null,"SEMIMAJOR_AXIS":"6925.364","CLASSIFICATION_TYPE":"U","PERIAPSIS":"546.047","EPHEMERIS_TYPE":"0","OBJECT_ID":"2020-055AY","ARG_OF_PERICENTER":"60.3793","SITE":"AFETR","OBJECT_NAME":"STARLINK-1542","MEAN_MOTION_DDOT":"0.0000000000000","REV_AT_EPOCH":"7276","RA_OF_ASC_NODE":"301.8635","TLE_LINE1":"1 46073U 20055AY  21325.30663708  .00001473  00000-0  11779-3 0  9991","REF_FRAME":"TEME","RCS_SIZE":"LARGE","BSTAR":"0.00011779000000","COUNTRY_CODE":"US","LAUNCH_DATE":"2020-08-07","OBJECT_TYPE":"PAYLOAD","INCLINATION":"53.0549","MEAN_MOTION_DOT":"0.00001473","CENTER_NAME":"EARTH","APOAPSIS":"548.411","PERIOD":"95.592","TIME_SYSTEM":"UTC","MEAN_ANOMALY":"299.7365","MEAN_MOTION":"15.06394973","TLE_LINE2":"2 46073  53.0549 301.8635 0001707  60.3793 299.7365 15.06394973 72767","EPOCH":"2021-11-21T07:21:33.443712"}];
